[{"OBJECT_NAME":"LUOJIA-1 01","OBJECT_ID":"2018-048B","EPOCH":"2026-03-09T23:50:59.082432","MEAN_MOTION":14.86876409,"ECCENTRICITY":0.00105485,"INCLINATION":97.8151,"RA_OF_ASC_NODE":148.7861,"ARG_OF_PERICENTER":88.6664,"MEAN_ANOMALY":271.576,"EPHEMERIS_TYPE":0,"CLASSIFICATION_TYPE":"U","NORAD_CAT_ID":43485,"ELEMENT_SET_NO":999,"REV_AT_EPOCH":41947,"BSTAR":0.00015202216,"MEAN_MOTION_DOT":1.304e-5,"MEAN_MOTION_DDOT":0},{"OBJECT_NAME":"THOR BURNER 2A DEB","OBJECT_ID":"1974-015H","EPOCH":"2026-03-08T04:04:47.955936","MEAN_MOTION":14.75580754,"ECCENTRICITY":0.00614461,"INCLINATION":99.0558,"RA_OF_ASC_NODE":327.2504,"ARG_OF_PERICENTER":233.8215,"MEAN_ANOMALY":125.7298,"EPHEMERIS_TYPE":0,"CLASSIFICATION_TYPE":"U","NORAD_CAT_ID":37584,"ELEMENT_SET_NO":999,"REV_AT_EPOCH":61465,"BSTAR":0.002131621,"MEAN_MOTION_DOT":0.00014951,"MEAN_MOTION_DDOT":0}]
